{
  "links" : {
    "next" : "https://api.nasa.gov/neo/rest/v1/feed?start_date=1998-06-16&end_date=1998-06-16&detailed=true&api_key=t0TVs3DtDT2H8Oy2Zy8m2eVrNsAVKAexjcZXUckd",
    "prev" : "https://api.nasa.gov/neo/rest/v1/feed?start_date=1998-06-14&end_date=1998-06-14&detailed=true&api_key=t0TVs3DtDT2H8Oy2Zy8m2eVrNsAVKAexjcZXUckd",
    "self" : "https://api.nasa.gov/neo/rest/v1/feed?start_date=1998-06-15&end_date=1998-06-15&detailed=true&api_key=t0TVs3DtDT2H8Oy2Zy8m2eVrNsAVKAexjcZXUckd"
  },
  "element_count" : 5,
  "near_earth_objects" : {
    "1998-06-15" : [ {
      "links" : {
        "self" : "https://api.nasa.gov/neo/rest/v1/neo/2137099?api_key=t0TVs3DtDT2H8Oy2Zy8m2eVrNsAVKAexjcZXUckd"
      },
      "neo_reference_id" : "2137099",
      "name" : "137099 (1998 YW3)",
      "nasa_jpl_url" : "http://ssd.jpl.nasa.gov/sbdb.cgi?sstr=2137099",
      "absolute_magnitude_h" : 18.2,
      "estimated_diameter" : {
        "kilometers" : {
          "estimated_diameter_min" : 0.6089126221,
          "estimated_diameter_max" : 1.3615700154
        },
        "meters" : {
          "estimated_diameter_min" : 608.9126221057,
          "estimated_diameter_max" : 1361.5700153859
        },
        "miles" : {
          "estimated_diameter_min" : 0.3783606449,
          "estimated_diameter_max" : 0.846040122
        },
        "feet" : {
          "estimated_diameter_min" : 1997.7448871092,
          "estimated_diameter_max" : 4467.0933692788
        }
      },
      "is_potentially_hazardous_asteroid" : false,
      "close_approach_data" : [ {
        "close_approach_date" : "1998-06-15",
        "epoch_date_close_approach" : 897894000000,
        "relative_velocity" : {
          "kilometers_per_second" : "24.6664974161",
          "kilometers_per_hour" : "88799.3906979348",
          "miles_per_hour" : "55176.4880700584"
        },
        "miss_distance" : {
          "astronomical" : "0.4116088395",
          "lunar" : "160.1158447266",
          "kilometers" : "61575808",
          "miles" : "38261432"
        },
        "orbiting_body" : "Earth"
      } ],
      "orbital_data" : {
        "orbit_id" : "69",
        "orbit_determination_date" : "2017-04-06 09:27:56",
        "orbit_uncertainty" : "0",
        "minimum_orbit_intersection" : ".388359",
        "jupiter_tisserand_invariant" : "5.445",
        "epoch_osculation" : "2458000.5",
        "eccentricity" : ".4626233426488658",
        "semi_major_axis" : "1.100009023461051",
        "inclination" : "28.79291804959249",
        "ascending_node_longitude" : "94.2846531083093",
        "orbital_period" : "421.3983186368112",
        "perihelion_distance" : ".591119172083585",
        "perihelion_argument" : "194.8272082028749",
        "aphelion_distance" : "1.608898874838517",
        "perihelion_time" : "2458154.779546160167",
        "mean_anomaly" : "228.1991973832985",
        "mean_motion" : ".8542986150599042",
        "equinox" : "J2000"
      }
    }, {
      "links" : {
        "self" : "https://api.nasa.gov/neo/rest/v1/neo/2435058?api_key=t0TVs3DtDT2H8Oy2Zy8m2eVrNsAVKAexjcZXUckd"
      },
      "neo_reference_id" : "2435058",
      "name" : "435058 (2006 XG2)",
      "nasa_jpl_url" : "http://ssd.jpl.nasa.gov/sbdb.cgi?sstr=2435058",
      "absolute_magnitude_h" : 20.2,
      "estimated_diameter" : {
        "kilometers" : {
          "estimated_diameter_min" : 0.2424124811,
          "estimated_diameter_max" : 0.5420507863
        },
        "meters" : {
          "estimated_diameter_min" : 242.4124811008,
          "estimated_diameter_max" : 542.0507863358
        },
        "miles" : {
          "estimated_diameter_min" : 0.1506280858,
          "estimated_diameter_max" : 0.3368146392
        },
        "feet" : {
          "estimated_diameter_min" : 795.3165644948,
          "estimated_diameter_max" : 1778.3819018419
        }
      },
      "is_potentially_hazardous_asteroid" : false,
      "close_approach_data" : [ {
        "close_approach_date" : "1998-06-15",
        "epoch_date_close_approach" : 897894000000,
        "relative_velocity" : {
          "kilometers_per_second" : "10.6944267627",
          "kilometers_per_hour" : "38499.9363457074",
          "miles_per_hour" : "23922.3632254758"
        },
        "miss_distance" : {
          "astronomical" : "0.1759531135",
          "lunar" : "68.4457626343",
          "kilometers" : "26322212",
          "miles" : "16355864"
        },
        "orbiting_body" : "Earth"
      } ],
      "orbital_data" : {
        "orbit_id" : "27",
        "orbit_determination_date" : "2017-04-06 09:20:47",
        "orbit_uncertainty" : "1",
        "minimum_orbit_intersection" : ".140226",
        "jupiter_tisserand_invariant" : "4.823",
        "epoch_osculation" : "2458000.5",
        "eccentricity" : ".1401378963218428",
        "semi_major_axis" : "1.34149819438886",
        "inclination" : "20.11695117020145",
        "ascending_node_longitude" : "81.34612871104349",
        "orbital_period" : "567.5231289692981",
        "perihelion_distance" : "1.153503459507654",
        "perihelion_argument" : "189.9058936729688",
        "aphelion_distance" : "1.529492929270065",
        "perihelion_time" : "2457792.084825655239",
        "mean_anomaly" : "132.2051189356424",
        "mean_motion" : ".6343353805752563",
        "equinox" : "J2000"
      }
    }, {
      "links" : {
        "self" : "https://api.nasa.gov/neo/rest/v1/neo/2438990?api_key=t0TVs3DtDT2H8Oy2Zy8m2eVrNsAVKAexjcZXUckd"
      },
      "neo_reference_id" : "2438990",
      "name" : "438990 (2010 SG13)",
      "nasa_jpl_url" : "http://ssd.jpl.nasa.gov/sbdb.cgi?sstr=2438990",
      "absolute_magnitude_h" : 18.3,
      "estimated_diameter" : {
        "kilometers" : {
          "estimated_diameter_min" : 0.5815070396,
          "estimated_diameter_max" : 1.30028927
        },
        "meters" : {
          "estimated_diameter_min" : 581.5070396458,
          "estimated_diameter_max" : 1300.2892700427
        },
        "miles" : {
          "estimated_diameter_min" : 0.3613316107,
          "estimated_diameter_max" : 0.807962044
        },
        "feet" : {
          "estimated_diameter_min" : 1907.8315559515,
          "estimated_diameter_max" : 4266.0410487267
        }
      },
      "is_potentially_hazardous_asteroid" : false,
      "close_approach_data" : [ {
        "close_approach_date" : "1998-06-15",
        "epoch_date_close_approach" : 897894000000,
        "relative_velocity" : {
          "kilometers_per_second" : "39.6241313317",
          "kilometers_per_hour" : "142646.8727941776",
          "miles_per_hour" : "88635.2193759155"
        },
        "miss_distance" : {
          "astronomical" : "0.397913172",
          "lunar" : "154.7882232666",
          "kilometers" : "59526960",
          "miles" : "36988340"
        },
        "orbiting_body" : "Earth"
      } ],
      "orbital_data" : {
        "orbit_id" : "30",
        "orbit_determination_date" : "2017-04-06 09:20:34",
        "orbit_uncertainty" : "1",
        "minimum_orbit_intersection" : ".0658877",
        "jupiter_tisserand_invariant" : "4.696",
        "epoch_osculation" : "2458000.5",
        "eccentricity" : ".7481371297663283",
        "semi_major_axis" : "1.252391597316917",
        "inclination" : "33.82544596339837",
        "ascending_node_longitude" : "253.0065527498354",
        "orbital_period" : "511.9277177558105",
        "perihelion_distance" : ".3154309423567715",
        "perihelion_argument" : "225.0689367577424",
        "aphelion_distance" : "2.189352252277062",
        "perihelion_time" : "2458106.094484936250",
        "mean_anomaly" : "285.7433945094909",
        "mean_motion" : ".7032242785723121",
        "equinox" : "J2000"
      }
    } ]
  }
}